PROBA-1                 
1 26958U 01049B   22365.52602630  .00002652  00000+0  22366-3 0  9992
2 26958  97.8514 325.7208 0072146  47.5918 313.1377 14.97038879153951
BIRD 2                  
1 26959U 01049C   22364.55121767  .00027968  00000+0  48022-3 0  9996
2 26959  97.7647 110.4509 0005836  33.2200 326.9417 15.51115929483506
CUTE-1 (CO-55)          
1 27844U 03031E   22364.74061206  .00000349  00000+0  17572-3 0  9995
2 27844  98.6794   9.4799 0008849 251.8969 108.1246 14.22571151 11819
CUBESAT XI-IV (CO-57)   
1 27848U 03031J   22364.27317414  .00000289  00000+0  15014-3 0  9994
2 27848  98.6833   9.4922 0008672 269.8444  90.1740 14.22111095 11496
GENESIS 1               
1 29252U 06029A   22364.52359818  .00008968  00000+0  37991-3 0  9997
2 29252  64.5207 146.3625 0046182 233.1926 126.4959 15.22752280908805
FALCONSAT-3             
1 30776U 07006E   22365.45600735  .00343267  00000+0  11217-2 0  9992
2 30776  35.4248  28.2840 0008012 167.4080 192.6864 15.88733409880451
GENESIS 2               
1 31789U 07028A   22365.53121003  .00006972  00000+0  30220-3 0  9991
2 31789  64.4938 186.7405 0059667 285.1238  74.3291 15.21582042855922
APRIZESAT 4             
1 35684U 09041D   22365.27790840  .00000778  00000+0  10884-3 0  9990
2 35684  98.3010  25.5983 0047883  80.5378 280.1241 14.79895103724224
APRIZESAT 3             
1 35686U 09041F   22365.24549792  .00001483  00000+0  15974-3 0  9996
2 35686  98.1019  96.2718 0070183 262.9686  96.3545 14.88349549727923
PROBA-2                 
1 36037U 09059B   22365.47677418  .00000337  00000+0  91606-4 0  9992
2 36037  98.2205 188.3914 0012650 217.6333 142.3979 14.53357981697968
APRIZESAT 5             
1 37792U 11044E   22365.45432326  .00000840  00000+0  12672-3 0  9997
2 37792  98.2981 246.3810 0058750  95.9475 264.8433 14.76027502612200
APRIZESAT 6             
1 37793U 11044F   22365.13789308  .00000847  00000+0  13823-3 0  9994
2 37793  98.3754 223.6384 0046960 150.9724  10.4839 14.73010450610960
PROBA-V                 
1 39159U 13021A   22365.51970490  .00000061  00000+0  45059-4 0  9990
2 39159  98.3369  31.2652 0003313 222.9521 137.1400 14.23067804501354
STPSAT-3                
1 39380U 13064A   22365.18846837  .00117914  00000+0  12539-2 0  9994
2 39380  40.4967 281.3134 0013213 269.4759  90.4550 15.62734024511508
APRIZESAT 7             
1 39416U 13066A   22364.75182563  .00001270  00000+0  15324-3 0  9990
2 39416  97.5975 335.3661 0041962  71.9078 288.6702 14.84836984493192
APRIZESAT 8             
1 39425U 13066K   22365.16300081  .00001030  00000+0  13339-3 0  9991
2 39425  97.6551 327.6069 0052500 115.5419 245.1236 14.81948473492365
BUGSAT-1 (TITA)         
1 40014U 14033E   22365.56978091  .00002953  00000+0  25553-3 0  9994
2 40014  98.1440  12.1866 0031580 104.3442 256.1288 14.97629581465634
SAUDISAT 4              
1 40016U 14033G   22364.80822473  .00000929  00000+0  14047-3 0  9991
2 40016  97.6339 188.8451 0046904 223.1323 136.6209 14.75765593459371
APRIZESAT 9             
1 40018U 14033J   22365.41373521  .00000689  00000+0  11759-3 0  9996
2 40018  97.7302 165.6695 0069599 301.8285  57.6159 14.70477932457728
APRIZESAT 10            
1 40019U 14033K   22365.42464550  .00000516  00000+0  94850-4 0  9994
2 40019  97.7900 155.7995 0083389 348.8447  11.0907 14.67505840456865
TDS 1                   
1 40076U 14037H   22365.39279383  .00003594  00000+0  41177-3 0  9997
2 40076  98.3646 248.6648 0007134 144.6855 215.4833 14.86609566459039
TIANTUO 2               
1 40144U 14053B   22365.44294157  .00008508  00000+0  21173-3 0  9997
2 40144  97.1785  81.5993 0009469 198.4606 218.5381 15.40463819465395
TECHNOSAT               
1 42829U 17042E   22365.30991796  .00002575  00000+0  25569-3 0  9999
2 42829  97.3979 207.7860 0015329  70.5035 289.7839 14.92448245297446
FLYING LAPTOP           
1 42831U 17042G   22365.37075402  .00001296  00000+0  13190-3 0  9992
2 42831  97.3995 208.1853 0015181  70.2587 290.0277 14.92253924297459
HAWK-A                  
1 43765U 18099H   22365.40557360  .00003528  00000+0  30422-3 0  9991
2 43765  97.5981  68.2689 0013555 337.4260  22.6365 14.97864285222610
HAWK-B                  
1 43794U 18099AN  22364.67113070  .00003402  00000+0  29352-3 0  9998
2 43794  97.5981  67.5542 0013676 340.3215  19.7478 14.97861773222496
HAWK-C                  
1 43799U 18099AT  22365.13854047  .00003525  00000+0  30392-3 0  9993
2 43799  97.5977  67.9135 0013574 338.4860  21.5790 14.97864839222561
SALSAT                  
1 46495U 20068K   22364.43665581  .00003867  00000+0  27201-3 0  9997
2 46495  97.7524 306.1326 0015492 340.1155  19.9466 15.05595338123662
